CCSDS_OMM_VERS = 2.0
CREATION_DATE  = 
ORIGINATOR     = 

OBJECT_NAME    = UNKNOWN
OBJECT_ID      = 
CENTER_NAME    = EARTH
REF_FRAME      = TEME
TIME_SYSTEM    = UTC
MEAN_ELEMENT_THEORY = SGP/SGP4

EPOCH          = 2026-03-21T06:40:02.269920
MEAN_MOTION    = 12.92598895
ECCENTRICITY   = .06887927
INCLINATION    = 72.9876
RA_OF_ASC_NODE = 291.1032
ARG_OF_PERICENTER = 220.6099
MEAN_ANOMALY   = 134.1619

EPHEMERIS_TYPE = 0
CLASSIFICATION_TYPE = U
NORAD_CAT_ID   = 270181
ELEMENT_SET_NO = 999
REV_AT_EPOCH   = 29655
BSTAR          = .17492401E-2
MEAN_MOTION_DOT = .1368E-4
MEAN_MOTION_DDOT = 0

CCSDS_OMM_VERS = 2.0
CREATION_DATE  = 
ORIGINATOR     = 

OBJECT_NAME    = UNKNOWN
OBJECT_ID      = 
CENTER_NAME    = EARTH
REF_FRAME      = TEME
TIME_SYSTEM    = UTC
MEAN_ELEMENT_THEORY = SGP/SGP4

EPOCH          = 2026-04-02T23:55:39.155808
MEAN_MOTION    = 13.01445141
ECCENTRICITY   = .00409389
INCLINATION    = 90.2467
RA_OF_ASC_NODE = 357.9691
ARG_OF_PERICENTER = 79.3810
MEAN_ANOMALY   = 281.1920

EPHEMERIS_TYPE = 0
CLASSIFICATION_TYPE = U
NORAD_CAT_ID   = 270183
ELEMENT_SET_NO = 999
REV_AT_EPOCH   = 30053
BSTAR          = -.18483597E-2
MEAN_MOTION_DOT = -.562E-5
MEAN_MOTION_DDOT = 0

CCSDS_OMM_VERS = 2.0
CREATION_DATE  = 
ORIGINATOR     = 

OBJECT_NAME    = UNKNOWN
OBJECT_ID      = 
CENTER_NAME    = EARTH
REF_FRAME      = TEME
TIME_SYSTEM    = UTC
MEAN_ELEMENT_THEORY = SGP/SGP4

EPOCH          = 2026-04-02T12:13:00.234336
MEAN_MOTION    = 12.96081223
ECCENTRICITY   = .0036002
INCLINATION    = 90.2439
RA_OF_ASC_NODE = 3.9131
ARG_OF_PERICENTER = 15.7626
MEAN_ANOMALY   = 344.4606

EPHEMERIS_TYPE = 0
CLASSIFICATION_TYPE = U
NORAD_CAT_ID   = 270184
ELEMENT_SET_NO = 999
REV_AT_EPOCH   = 29884
BSTAR          = .22521113E-2
MEAN_MOTION_DOT = .65E-5
MEAN_MOTION_DDOT = 0

CCSDS_OMM_VERS = 2.0
CREATION_DATE  = 
ORIGINATOR     = 

OBJECT_NAME    = UNKNOWN
OBJECT_ID      = 
CENTER_NAME    = EARTH
REF_FRAME      = TEME
TIME_SYSTEM    = UTC
MEAN_ELEMENT_THEORY = SGP/SGP4

EPOCH          = 2026-03-21T01:58:46.018848
MEAN_MOTION    = 11.64942075
ECCENTRICITY   = .07624426
INCLINATION    = 65.7645
RA_OF_ASC_NODE = 14.6062
ARG_OF_PERICENTER = 271.3859
MEAN_ANOMALY   = 79.9953

EPHEMERIS_TYPE = 0
CLASSIFICATION_TYPE = U
NORAD_CAT_ID   = 270185
ELEMENT_SET_NO = 999
REV_AT_EPOCH   = 26866
BSTAR          = -.1538099E-2
MEAN_MOTION_DOT = -.216E-5
MEAN_MOTION_DDOT = 0

CCSDS_OMM_VERS = 2.0
CREATION_DATE  = 
ORIGINATOR     = 

OBJECT_NAME    = UNKNOWN
OBJECT_ID      = 
CENTER_NAME    = EARTH
REF_FRAME      = TEME
TIME_SYSTEM    = UTC
MEAN_ELEMENT_THEORY = SGP/SGP4

EPOCH          = 2026-04-03T02:48:42.073632
MEAN_MOTION    = 13.09083879
ECCENTRICITY   = .00242735
INCLINATION    = 90.3349
RA_OF_ASC_NODE = 32.1526
ARG_OF_PERICENTER = 135.2908
MEAN_ANOMALY   = 225.0182

EPHEMERIS_TYPE = 0
CLASSIFICATION_TYPE = U
NORAD_CAT_ID   = 270186
ELEMENT_SET_NO = 999
REV_AT_EPOCH   = 30285
BSTAR          = .36899287E-2
MEAN_MOTION_DOT = .1274E-4
MEAN_MOTION_DDOT = 0

CCSDS_OMM_VERS = 2.0
CREATION_DATE  = 
ORIGINATOR     = 

OBJECT_NAME    = UNKNOWN
OBJECT_ID      = 
CENTER_NAME    = EARTH
REF_FRAME      = TEME
TIME_SYSTEM    = UTC
MEAN_ELEMENT_THEORY = SGP/SGP4

EPOCH          = 2026-04-03T01:24:10.772064
MEAN_MOTION    = 14.46969892
ECCENTRICITY   = .00179521
INCLINATION    = 74.0379
RA_OF_ASC_NODE = 20.6034
ARG_OF_PERICENTER = 76.3143
MEAN_ANOMALY   = 284.0013

EPHEMERIS_TYPE = 0
CLASSIFICATION_TYPE = U
NORAD_CAT_ID   = 270187
ELEMENT_SET_NO = 999
REV_AT_EPOCH   = 6567
BSTAR          = .90127156E-3
MEAN_MOTION_DOT = .3257E-4
MEAN_MOTION_DDOT = 0

CCSDS_OMM_VERS = 2.0
CREATION_DATE  = 
ORIGINATOR     = 

OBJECT_NAME    = UNKNOWN
OBJECT_ID      = 
CENTER_NAME    = EARTH
REF_FRAME      = TEME
TIME_SYSTEM    = UTC
MEAN_ELEMENT_THEORY = SGP/SGP4

EPOCH          = 2026-04-03T13:08:41.962560
MEAN_MOTION    = 12.44746565
ECCENTRICITY   = .07033885
INCLINATION    = 74.3191
RA_OF_ASC_NODE = 197.6368
ARG_OF_PERICENTER = 311.6065
MEAN_ANOMALY   = 42.6717

EPHEMERIS_TYPE = 0
CLASSIFICATION_TYPE = U
NORAD_CAT_ID   = 270188
ELEMENT_SET_NO = 999
REV_AT_EPOCH   = 28708
BSTAR          = .68544713E-2
MEAN_MOTION_DOT = .2334E-4
MEAN_MOTION_DDOT = 0

CCSDS_OMM_VERS = 2.0
CREATION_DATE  = 
ORIGINATOR     = 

OBJECT_NAME    = UNKNOWN
OBJECT_ID      = 
CENTER_NAME    = EARTH
REF_FRAME      = TEME
TIME_SYSTEM    = UTC
MEAN_ELEMENT_THEORY = SGP/SGP4

EPOCH          = 2026-03-31T01:35:47.813568
MEAN_MOTION    = 11.13598758
ECCENTRICITY   = .10671499
INCLINATION    = 63.3847
RA_OF_ASC_NODE = 5.2249
ARG_OF_PERICENTER = 300.8707
MEAN_ANOMALY   = 49.1460

EPHEMERIS_TYPE = 0
CLASSIFICATION_TYPE = U
NORAD_CAT_ID   = 270189
ELEMENT_SET_NO = 999
REV_AT_EPOCH   = 25774
BSTAR          = -.33707604E-2
MEAN_MOTION_DOT = -.373E-5
MEAN_MOTION_DDOT = 0

CCSDS_OMM_VERS = 2.0
CREATION_DATE  = 
ORIGINATOR     = 

OBJECT_NAME    = UNKNOWN
OBJECT_ID      = 
CENTER_NAME    = EARTH
REF_FRAME      = TEME
TIME_SYSTEM    = UTC
MEAN_ELEMENT_THEORY = SGP/SGP4

EPOCH          = 2026-04-02T05:51:15.818112
MEAN_MOTION    = 14.38549441
ECCENTRICITY   = .00330846
INCLINATION    = 98.6266
RA_OF_ASC_NODE = 98.3004
ARG_OF_PERICENTER = 40.8225
MEAN_ANOMALY   = 319.5432

EPHEMERIS_TYPE = 0
CLASSIFICATION_TYPE = U
NORAD_CAT_ID   = 270190
ELEMENT_SET_NO = 999
REV_AT_EPOCH   = 33148
BSTAR          = .23088887E-3
MEAN_MOTION_DOT = .666E-5
MEAN_MOTION_DDOT = 0

CCSDS_OMM_VERS = 2.0
CREATION_DATE  = 
ORIGINATOR     = 

OBJECT_NAME    = UNKNOWN
OBJECT_ID      = 
CENTER_NAME    = EARTH
REF_FRAME      = TEME
TIME_SYSTEM    = UTC
MEAN_ELEMENT_THEORY = SGP/SGP4

EPOCH          = 2026-03-12T01:09:51.075648
MEAN_MOTION    = 12.97953889
ECCENTRICITY   = .00189213
INCLINATION    = 90.2578
RA_OF_ASC_NODE = 4.6806
ARG_OF_PERICENTER = 316.9261
MEAN_ANOMALY   = 43.0378

EPHEMERIS_TYPE = 0
CLASSIFICATION_TYPE = U
NORAD_CAT_ID   = 270192
ELEMENT_SET_NO = 999
REV_AT_EPOCH   = 29745
BSTAR          = .48237916E-2
MEAN_MOTION_DOT = .1418E-4
MEAN_MOTION_DDOT = 0

CCSDS_OMM_VERS = 2.0
CREATION_DATE  = 
ORIGINATOR     = 

OBJECT_NAME    = UNKNOWN
OBJECT_ID      = 
CENTER_NAME    = EARTH
REF_FRAME      = TEME
TIME_SYSTEM    = UTC
MEAN_ELEMENT_THEORY = SGP/SGP4

EPOCH          = 2026-03-24T09:07:15.913056
MEAN_MOTION    = 13.46243514
ECCENTRICITY   = .00461823
INCLINATION    = 100.4369
RA_OF_ASC_NODE = 322.3656
ARG_OF_PERICENTER = 204.2162
MEAN_ANOMALY   = 155.6796

EPHEMERIS_TYPE = 0
CLASSIFICATION_TYPE = U
NORAD_CAT_ID   = 270194
ELEMENT_SET_NO = 999
REV_AT_EPOCH   = 30992
BSTAR          = .2616359E-2
MEAN_MOTION_DOT = .1531E-4
MEAN_MOTION_DDOT = 0

CCSDS_OMM_VERS = 2.0
CREATION_DATE  = 
ORIGINATOR     = 

OBJECT_NAME    = UNKNOWN
OBJECT_ID      = 
CENTER_NAME    = EARTH
REF_FRAME      = TEME
TIME_SYSTEM    = UTC
MEAN_ELEMENT_THEORY = SGP/SGP4

EPOCH          = 2026-03-30T01:05:11.192352
MEAN_MOTION    = 12.96992926
ECCENTRICITY   = .00278746
INCLINATION    = 90.2462
RA_OF_ASC_NODE = 7.1853
ARG_OF_PERICENTER = 216.6389
MEAN_ANOMALY   = 143.2826

EPHEMERIS_TYPE = 0
CLASSIFICATION_TYPE = U
NORAD_CAT_ID   = 270195
ELEMENT_SET_NO = 999
REV_AT_EPOCH   = 29798
BSTAR          = .48128969E-3
MEAN_MOTION_DOT = .146E-5
MEAN_MOTION_DDOT = 0

CCSDS_OMM_VERS = 2.0
CREATION_DATE  = 
ORIGINATOR     = 

OBJECT_NAME    = UNKNOWN
OBJECT_ID      = 
CENTER_NAME    = EARTH
REF_FRAME      = TEME
TIME_SYSTEM    = UTC
MEAN_ELEMENT_THEORY = SGP/SGP4

EPOCH          = 2026-03-31T12:45:16.358976
MEAN_MOTION    = 13.95053001
ECCENTRICITY   = .00538489
INCLINATION    = 64.6930
RA_OF_ASC_NODE = 176.5308
ARG_OF_PERICENTER = 197.6882
MEAN_ANOMALY   = 162.2308

EPHEMERIS_TYPE = 0
CLASSIFICATION_TYPE = U
NORAD_CAT_ID   = 270196
ELEMENT_SET_NO = 999
REV_AT_EPOCH   = 32245
BSTAR          = .53634817E-3
MEAN_MOTION_DOT = .639E-5
MEAN_MOTION_DDOT = 0

CCSDS_OMM_VERS = 2.0
CREATION_DATE  = 
ORIGINATOR     = 

OBJECT_NAME    = UNKNOWN
OBJECT_ID      = 
CENTER_NAME    = EARTH
REF_FRAME      = TEME
TIME_SYSTEM    = UTC
MEAN_ELEMENT_THEORY = SGP/SGP4

EPOCH          = 2026-03-31T13:16:42.286944
MEAN_MOTION    = 13.87165877
ECCENTRICITY   = .03622066
INCLINATION    = 97.5778
RA_OF_ASC_NODE = 36.4894
ARG_OF_PERICENTER = 303.4466
MEAN_ANOMALY   = 53.2549

EPHEMERIS_TYPE = 0
CLASSIFICATION_TYPE = U
NORAD_CAT_ID   = 270197
ELEMENT_SET_NO = 999
REV_AT_EPOCH   = 31849
BSTAR          = .23075646E-2
MEAN_MOTION_DOT = .452E-4
MEAN_MOTION_DDOT = 0

CCSDS_OMM_VERS = 2.0
CREATION_DATE  = 
ORIGINATOR     = 

OBJECT_NAME    = UNKNOWN
OBJECT_ID      = 
CENTER_NAME    = EARTH
REF_FRAME      = TEME
TIME_SYSTEM    = UTC
MEAN_ELEMENT_THEORY = SGP/SGP4

EPOCH          = 2026-03-30T10:40:23.336256
MEAN_MOTION    = 11.18711068
ECCENTRICITY   = .02179044
INCLINATION    = 64.7472
RA_OF_ASC_NODE = 349.4195
ARG_OF_PERICENTER = 180.9724
MEAN_ANOMALY   = 179.0797

EPHEMERIS_TYPE = 0
CLASSIFICATION_TYPE = U
NORAD_CAT_ID   = 270198
ELEMENT_SET_NO = 999
REV_AT_EPOCH   = 2589
BSTAR          = .80085142E-3
MEAN_MOTION_DOT = -.15E-6
MEAN_MOTION_DDOT = 0

CCSDS_OMM_VERS = 2.0
CREATION_DATE  = 
ORIGINATOR     = 

OBJECT_NAME    = UNKNOWN
OBJECT_ID      = 
CENTER_NAME    = EARTH
REF_FRAME      = TEME
TIME_SYSTEM    = UTC
MEAN_ELEMENT_THEORY = SGP/SGP4

EPOCH          = 2026-03-27T03:42:08.292096
MEAN_MOTION    = 13.12711538
ECCENTRICITY   = .06005795
INCLINATION    = 72.7232
RA_OF_ASC_NODE = 243.6469
ARG_OF_PERICENTER = 182.8168
MEAN_ANOMALY   = 176.9480

EPHEMERIS_TYPE = 0
CLASSIFICATION_TYPE = U
NORAD_CAT_ID   = 270199
ELEMENT_SET_NO = 999
REV_AT_EPOCH   = 30081
BSTAR          = .28215925E-2
MEAN_MOTION_DOT = .2507E-4
MEAN_MOTION_DDOT = 0

